NORAD_CAT_ID,OBJECT_NAME,OBJECT_TYPE,EPOCH,MEAN_MOTION,ECCENTRICITY,INCLINATION,RA_OF_ASC_NODE,ARG_OF_PERICENTER,MEAN_ANOMALY,BSTAR,MEAN_MOTION_DOT,MEAN_MOTION_DDOT,TLE_LINE0,TLE_LINE1,TLE_LINE2,SEMIMAJOR_AXIS,PERIOD,APOGEE,PERIGEE,DECAYED
52266.0,STARLINK-3739,PAYLOAD,2022-07-30 14:00:01,15.08817471,0.0002008999999999,53.2136,266.3237,43.2296,282.391,0.0024245,0.00038486,0.0,0 STARLINK-3739,1 52266U 22041F   22211.58334491  .00038486  00000-0  24245-2 0  9993,2 52266  53.2136 266.3237 0002009  43.2296 282.3910 15.08817471  1300,6917.949000000001,95.439,541.2040000000002,538.424,0.0
52266.0,STARLINK-3739,PAYLOAD,2022-07-30 22:00:00,15.08833658,0.0001838,53.2134,264.8256,47.0781,290.1328,0.00025426,3.76e-05,0.0,0 STARLINK-3739,1 52266U 22041F   22211.91667824  .00003760  00000-0  25426-3 0  9999,2 52266  53.2134 264.8256 0001838  47.0781 290.1328 15.08833658  1307,6917.9,95.438,541.036,538.493,0.0
52266.0,STARLINK-3739,PAYLOAD,2022-07-31 06:00:02,15.08858077,0.0001853,53.2134,263.3294,48.9405,299.9179,-0.0015754,-0.00025286,0.0,0 STARLINK-3739,1 52266U 22041F   22212.25002315 -.00025286  00000-0 -15754-2 0  9996,2 52266  53.2134 263.3294 0001853  48.9405 299.9179 15.08858077 16694,6917.825,95.436,540.972,538.408,0.0
52266.0,STARLINK-3739,PAYLOAD,2022-07-31 14:00:01,15.08821329,0.0002017,53.2139,261.8342,43.9004,316.5045,0.0024774999999999,0.00039342,0.0,0 STARLINK-3739,1 52266U 22041F   22212.58334491  .00039342  00000-0  24775-2 0  9994,2 52266  53.2139 261.8342 0002017  43.9004 316.5045 15.08821329  1310,6917.937,95.439,541.198,538.4069999999998,0.0
52266.0,STARLINK-3739,PAYLOAD,2022-07-31 22:00:00,15.08832939,0.0001858,53.2148,260.336,48.1239,323.8782,0.00085011,0.00013265,0.0,0 STARLINK-3739,1 52266U 22041F   22212.91667824  .00013265  00000-0  85011-3 0  9997,2 52266  53.2148 260.3360 0001858  48.1239 323.8782 15.08832939  1300,6917.901999999999,95.438,541.052,538.482,0.0
52266.0,STARLINK-3739,PAYLOAD,2022-08-01 06:00:00,15.08862962,0.0001918,53.2149,258.8401,49.2004,334.3892,-0.0018313,-0.00029334,0.0,0 STARLINK-3739,1 52266U 22041F   22213.25001157 -.00029334  00000-0 -18313-2 0  9992,2 52266  53.2149 258.8401 0001918  49.2004 334.3892 15.08862962 16852,6917.81,95.436,541.002,538.3480000000002,0.0
52266.0,STARLINK-3739,PAYLOAD,2022-08-01 14:00:01,15.0882935,0.0002045999999999,53.2145,257.3447,43.6655,351.5401,0.0023838,0.00037844,0.0,0 STARLINK-3739,1 52266U 22041F   22213.58334491  .00037844  00000-0  23838-2 0  9999,2 52266  53.2145 257.3447 0002046  43.6655 351.5401 15.08829350  1300,6917.913000000001,95.438,541.193,538.363,0.0
52266.0,STARLINK-3739,PAYLOAD,2022-08-01 22:00:00,15.0883487,0.000185,53.2146,255.8464,46.8751,359.9361,-0.0010368,-0.00016749,0.0,0 STARLINK-3739,1 52266U 22041F   22213.91667824 -.00016749  00000-0 -10368-2 0  9992,2 52266  53.2146 255.8464 0001850  46.8751 359.9361 15.08834870  1307,6917.896,95.438,541.0409999999998,538.481,0.0
52266.0,STARLINK-3739,PAYLOAD,2022-08-02 06:00:02,15.0884166,0.0001927,53.2146,254.3505,46.7622,11.6884,-0.0019989,-0.00031962,0.0,0 STARLINK-3739,1 52266U 22041F   22214.25002315 -.00031962  00000-0 -19989-2 0  9990,2 52266  53.2146 254.3505 0001927  46.7622  11.6884 15.08841660 17009,6917.875,95.437,541.073,538.4069999999998,0.0
52266.0,STARLINK-3739,PAYLOAD,2022-08-02 14:00:01,15.08808023,0.0002069,53.2146,252.8551,41.5687,28.4073,0.0025383,0.00040306,0.0,0 STARLINK-3739,1 52266U 22041F   22214.58334491  .00040306  00000-0  25383-2 0  9994,2 52266  53.2146 252.8551 0002069  41.5687  28.4073 15.08808023  1303,6917.978,95.44,541.274,538.4119999999998,0.0
52266.0,STARLINK-3739,PAYLOAD,2022-08-03 06:00:00,15.08848898,0.0002041,53.215,249.8611,46.6858,46.4395,-0.0019633,-0.00031407,0.0,0 STARLINK-3739,1 52266U 22041F   22215.25001157 -.00031407  00000-0 -19633-2 0  9994,2 52266  53.2150 249.8611 0002041  46.6858  46.4395 15.08848898 17158,6917.853,95.437,541.13,538.306,0.0
52266.0,STARLINK-3739,PAYLOAD,2022-08-03 14:00:01,15.08816752,0.000217,53.215,248.3657,41.8097,62.9082,0.0022205,0.00035206,0.0,0 STARLINK-3739,1 52266U 22041F   22215.58334491  .00035206  00000-0  22205-2 0  9998,2 52266  53.2150 248.3657 0002170  41.8097  62.9082 15.08816752  1307,6917.951,95.439,541.318,538.315,0.0
52266.0,STARLINK-3739,PAYLOAD,2022-08-03 22:00:01,15.08816155,0.0001995,53.2154,246.8674,46.3336,70.0379,0.0021104,0.00033437,0.0,0 STARLINK-3739,1 52266U 22041F   22215.91668981  .00033437  00000-0  21104-2 0  9990,2 52266  53.2154 246.8674 0001995  46.3336  70.0379 15.08816155 17250,6917.953,95.439,541.198,538.438,0.0
52266.0,STARLINK-3739,PAYLOAD,2022-08-04 14:00:01,15.08828072,0.0002251,53.2156,243.8762,42.5877,96.8977,0.0017282,0.00027315,0.0,0 STARLINK-3739,1 52266U 22041F   22216.58334491  .00027315  00000-0  17282-2 0  9990,2 52266  53.2156 243.8762 0002251  42.5877  96.8977 15.08828072  1301,6917.917,95.438,541.339,538.225,0.0
52266.0,STARLINK-3739,PAYLOAD,2022-08-04 22:00:00,15.08821302,0.0002056999999999,53.2159,242.3781,47.2679,103.8174,0.0022667,0.00035953,0.0,0 STARLINK-3739,1 52266U 22041F   22216.91667824  .00035953  00000-0  22667-2 0  9996,2 52266  53.2159 242.3781 0002057  47.2679 103.8174 15.08821302  1302,6917.938,95.439,541.226,538.38,0.0
52266.0,STARLINK-3739,PAYLOAD,2022-08-05 06:00:02,15.08858063,0.0002181,53.2161,240.8826,47.2078,115.5272,-0.0018073,-0.00028951,0.0,0 STARLINK-3739,1 52266U 22041F   22217.25002315 -.00028951  00000-0 -18073-2 0  9990,2 52266  53.2161 240.8826 0002181  47.2078 115.5272 15.08858063 17455,6917.825,95.436,541.1990000000002,538.181,0.0
52266.0,STARLINK-3739,PAYLOAD,2022-08-05 14:00:01,15.08838928,0.0002281,53.2158,239.3868,43.6968,130.6416,0.0010335999999999,0.000162,0.0,0 STARLINK-3739,1 52266U 22041F   22217.58335648  .00016200  00000-0  10336-2 0  9990,2 52266  53.2158 239.3868 0002281  43.6968 130.6416 15.08838928  1302,6917.884,95.438,541.327,538.1709999999998,0.0
52266.0,STARLINK-3739,PAYLOAD,2022-08-05 22:00:00,15.08826533,0.0002081,53.2159,237.8889,48.5249,137.3601,0.0023828,0.00037825,0.0,0 STARLINK-3739,1 52266U 22041F   22217.91667824  .00037825  00000-0  23828-2 0  9997,2 52266  53.2159 237.8889 0002081  48.5249 137.3601 15.08826533 17556,6917.922,95.438,541.226,538.347,0.0
52266.0,STARLINK-3739,PAYLOAD,2022-08-06 11:29:15,15.08843146,0.0002153,53.2159,235.3669,47.9591,312.1584,6.1593e-05,6.92e-06,0.0,0 STARLINK-3739,1 52266U 22041F   22218.47865462  .00000692  00000-0  61593-4 0  9992,2 52266  53.2159 235.3669 0002153  47.9591 312.1584 15.08843146 17639,6917.871,95.437,541.225,538.246,0.0
52266.0,STARLINK-3739,PAYLOAD,2022-08-06 22:00:00,15.08807806,0.0002006999999999,53.2155,233.3997,48.0003,172.7008,0.0019417,0.00030722,0.0,0 STARLINK-3739,1 52266U 22041F   22218.91667824  .00030722  00000-0  19417-2 0  9996,2 52266  53.2155 233.3997 0002007  48.0003 172.7008 15.08807806  1306,6917.979,95.44,541.232,538.455,0.0
52266.0,STARLINK-3739,PAYLOAD,2022-08-07 14:00:01,15.08830044,0.0002201,53.2149,230.4087,44.6252,199.2209,-0.00043727,-7.239e-05,0.0,0 STARLINK-3739,1 52266U 22041F   22219.58334491 -.00007239  00000-0 -43727-3 0  9992,2 52266  53.2149 230.4087 0002201  44.6252 199.2209 15.08830044  1308,6917.911,95.438,541.298,538.253,0.0
52266.0,STARLINK-3739,PAYLOAD,2022-08-07 22:00:00,15.08806071,0.000205,53.2147,228.9108,50.1829,205.2514,0.002574,0.00040878,0.0,0 STARLINK-3739,1 52266U 22041F   22219.91667824  .00040878  00000-0  25740-2 0  9996,2 52266  53.2147 228.9108 0002050  50.1829 205.2514 15.08806071  1306,6917.984,95.44,541.2669999999998,538.431,0.0
52266.0,STARLINK-3739,PAYLOAD,2022-08-08 14:00:01,15.08843453,0.0002237,53.2141,225.9196,46.2354,232.4199,-0.00084782,-0.00013758,0.0,0 STARLINK-3739,1 52266U 22041F   22220.58335648 -.00013758  00000-0 -84782-3 0  9998,2 52266  53.2141 225.9196 0002237  46.2354 232.4199 15.08843453 17954,6917.87,95.437,541.2819999999998,538.187,0.0
52266.0,STARLINK-3739,PAYLOAD,2022-08-08 22:00:00,15.08816542,0.0002125,53.214,224.4217,51.9762,238.2169,0.0028221,0.00044884,0.0,0 STARLINK-3739,1 52266U 22041F   22220.91667824  .00044884  00000-0  28221-2 0  9996,2 52266  53.2140 224.4217 0002125  51.9762 238.2169 15.08816542  1305,6917.9519999999975,95.439,541.2869999999998,538.347,0.0
52266.0,STARLINK-3739,PAYLOAD,2022-08-09 14:00:01,15.08855761,0.0002309,53.2137,221.4303,47.1736,266.199,-0.0013704,-0.00022042,0.0,0 STARLINK-3739,1 52266U 22041F   22221.58334491 -.00022042  00000-0 -13704-2 0  9995,2 52266  53.2137 221.4303 0002309  47.1736 266.1990 15.08855761 18100,6917.831999999999,95.437,541.295,538.1,0.0
52266.0,STARLINK-3739,PAYLOAD,2022-08-09 22:00:00,15.08834562,0.0002184,53.2138,219.9322,52.5071,272.4761,0.0012041999999999,0.00018926,0.0,0 STARLINK-3739,1 52266U 22041F   22221.91667824  .00018926  00000-0  12042-2 0  9999,2 52266  53.2138 219.9322 0002184  52.5071 272.4761 15.08834562  1303,6917.897,95.438,541.273,538.251,0.0
52266.0,STARLINK-3739,PAYLOAD,2022-08-10 14:00:01,15.08841291,0.0002323999999999,53.2139,216.9407,46.4671,301.6931,-0.001609,-0.00025806,0.0,0 STARLINK-3739,1 52266U 22041F   22222.58334491 -.00025806  00000-0 -16090-2 0  9998,2 52266  53.2139 216.9407 0002324  46.4671 301.6931 15.08841291  1300,6917.876,95.437,541.349,538.134,0.0
52266.0,STARLINK-3739,PAYLOAD,2022-08-10 16:00:00,15.08841863,0.000229,53.2141,216.566,48.4084,32.6483,-0.001869,-0.00029913,0.0,0 STARLINK-3739,1 52266U 22041F   22222.66667824 -.00029913  00000-0 -18690-2 0  9997,2 52266  53.2141 216.5660 0002290  48.4084  32.6483 15.08841863 18274,6917.875,95.437,541.3240000000002,538.156,0.0
52266.0,STARLINK-3739,PAYLOAD,2022-08-10 22:00:00,15.088105300000002,0.0002234999999999,53.2142,215.4428,52.1913,307.5581,0.002699,0.00042894,0.0,0 STARLINK-3739,1 52266U 22041F   22222.91667824  .00042894  00000-0  26990-2 0  9998,2 52266  53.2142 215.4428 0002235  52.1913 307.5581 15.08810530  1303,6917.97,95.439,541.382,538.289,0.0
